satname,norad_id,inclination_deg,eccentricity,mean_motion_rev_per_day,perigee_km,apogee_km,l1,l2
STARLINK-1496,45780,53.0553,0.0001299,15.36441174,455.7553204620199,457.53099634717273,1 45780U 20038BC  26001.91668980  .00049914  00000+0  13853-2 0  9991,2 45780  53.0553 134.4219 0001299  86.2900  66.3980 15.36441174  5730
STARLINK-1497,45781,53.032,0.0005079,15.76701383,336.3820154011819,343.2060897643951,1 45781U 20038BD  26001.91668980  .00304629  00000+0  18006-2 0  9994,2 45781  53.0320  55.9299 0005079  21.4959 287.9058 15.76701383  6017
STARLINK-1510,45784,53.0154,0.000657,16.1420812,230.9793530118195,239.66944128767318,1 45784U 20038BG  26001.89019909  .01252912  11087-2  98671-3 0  9990,2 45784  53.0154  21.9295 0006570  38.3467 321.8034 16.14208120308293
STARLINK-1513,45786,53.0549,0.0001296,15.06407924,546.2897501003326,548.0847941516668,1 45786U 20038BJ  26001.77104926  .00004438  00000+0  31659-3 0  9993,2 45786  53.0549 137.0284 0001296  85.2798 274.8338 15.06407924306675
STARLINK-1522,46027,53.0566,0.0001379,15.06423557,546.184364456908,548.0943556770144,1 46027U 20055A   26001.55265655  .00017111  00000+0  11641-2 0  9994,2 46027  53.0566  68.0074 0001379  99.2884 260.8261 15.06423557298766
STARLINK-1523,46028,53.0562,0.0001485,15.06408901,546.1558675798315,548.2126879993357,1 46028U 20055B   26001.56740412  .00000890  00000+0  78595-4 0  9994,2 46028  53.0562  67.9420 0001485  90.3953 269.7207 15.06408901298789
STARLINK-1526,46029,53.0558,0.000121,15.06403271,546.3635668500583,548.0394987749996,1 46029U 20055C   26001.56001710  .00013785  00000+0  94243-3 0  9990,2 46029  53.0558  67.9745 0001210  80.0816 280.0309 15.06403271298778
STARLINK-1555,46032,53.0571,0.0001202,15.06413941,546.336409349763,548.0012528715624,1 46032U 20055F   26001.47894345  .00015654  00000+0  10671-2 0  9997,2 46032  53.0571  68.3394 0001202  76.3503 283.7620 15.06413941298764
STARLINK-1556,46033,53.0558,0.0001402,15.06405928,546.2224582110339,548.1643208522582,1 46033U 20055G   26001.59320752  .00005099  00000+0  36089-3 0  9991,2 46033  53.0558  67.8259 0001402  80.7432 279.3715 15.06405928298757
STARLINK-1557,46034,53.0562,0.0001272,15.06400225,546.3299640969153,548.0917725946238,1 46034U 20055H   26001.59689272  .00001405  00000+0  11319-3 0  9993,2 46034  53.0562  67.8081 0001272  89.7715 270.3420 15.06400225298753
STARLINK-1558,46035,53.056,0.0001355,15.06415579,546.2254326986749,548.1021892184444,1 46035U 20055J   26001.40521784  .00015586  00000+0  10625-2 0  9990,2 46035  53.0560  68.6720 0001355  71.8311 288.2826 15.06415579298753
STARLINK-1560,46036,53.055,0.0001283,15.06381515,546.3796828915401,548.1567418690365,1 46036U 20055K   26001.65585953 -.00003232  00000+0 -19831-3 0  9992,2 46036  53.0550  67.5447 0001283 107.9109 252.2020 15.06381515298796
STARLINK-1567,46038,53.0552,0.000141,15.06428719,546.1470780018317,548.1000014740366,1 46038U 20055M   26001.66691771  .00020611  00000+0  13975-2 0  9991,2 46038  53.0552  67.4957 0001410  88.6910 271.4240 15.06428719298786
STARLINK-1569,46039,53.055,0.0001174,15.06402424,546.3910936888451,548.017163785873,1 46039U 20055N   26001.60795075  .00005492  00000+0  38724-3 0  9998,2 46039  53.0550  67.7611 0001174 102.6065 257.5055 15.06402424298773
STARLINK-1582,46043,53.0557,0.000143,15.06413209,546.1807554968791,548.1613936062013,1 46043U 20055S   26001.41627243  .00005578  00000+0  39294-3 0  9991,2 46043  53.0557  68.6203 0001430  94.1799 265.9353 15.06413209298740
STARLINK-1591,46045,53.0555,0.0001512,15.06425294,546.0869355752739,548.1811375367279,1 46045U 20055U   26001.44208009  .00019262  00000+0  13076-2 0  9995,2 46045  53.0555  68.5065 0001512  77.5804 282.5354 15.06425294298730
STARLINK-1524,46047,53.0561,0.0001572,15.06437836,546.0069519102899,548.1842450392505,1 46047U 20055W   26001.52777281  .00018759  00000+0  12736-2 0  9991,2 46047  53.0561  58.1179 0001572  75.8113 284.3050 15.06437836298907
STARLINK-1527,46048,53.056,0.0001323,15.06418895,546.2374321372235,548.0698640427081,1 46048U 20055X   26001.45774002  .00016427  00000+0  11185-2 0  9999,2 46048  53.0560  58.4348 0001323  90.6771 269.4370 15.06418895298876
STARLINK-1540,46051,53.0555,0.0001439,15.06415262,546.1682315748249,548.161333427829,1 46051U 20055AA  26001.42457395  .00014694  00000+0  10029-2 0  9993,2 46051  53.0555  58.5837 0001439  77.6408 282.4742 15.06415262298905
STARLINK-1541,46052,53.057,0.0001271,15.06410799,546.2982531612779,548.058668351403,1 46052U 20055AB  26001.47618262  .00004418  00000+0  31522-3 0  9996,2 46052  53.0570  58.3500 0001271  95.6325 264.4809 15.06410799298870
STARLINK-1543,46053,53.0556,0.0001635,15.0639676,546.0891919766282,548.3537842022333,1 46053U 20055AC  26001.41353400  .00011171  00000+0  76769-3 0  9997,2 46053  53.0556  58.6370 0001635  73.0727 287.0441 15.06396760298899
STARLINK-1548,46054,53.0553,0.0001659,15.06411874,546.0262567891396,548.3240753658456,1 46054U 20055AD  26001.42089791  .00016781  00000+0  11424-2 0  9996,2 46054  53.0553  58.6006 0001659  84.0865 276.0313 15.06411874298894
STARLINK-1554,46055,53.0549,0.000149,15.0638695,546.2196717028419,548.2834374921113,1 46055U 20055AE  26001.73787615  .00006703  00000+0  46860-3 0  9997,2 46055  53.0549  57.1760 0001490  89.0737 271.0423 15.06386950298946
STARLINK-1564,46058,53.0582,0.0002162,15.0635774,545.8437934184576,548.8383701410203,1 46058U 20055AH  26001.54998505 -.00005638  00000+0 -36027-3 0  9993,2 46058  53.0582  58.4801 0002162 114.2328 245.8887 15.06357740298904
STARLINK-1570,46059,53.0564,0.0001927,15.06409913,545.8466673750681,548.5156850001704,1 46059U 20055AJ  26001.38033096 -.00000114  00000+0  11264-4 0  9991,2 46059  53.0564  58.7867 0001927  61.3269 298.7914 15.06409913298845
STARLINK-1572,46060,53.0562,0.0001401,15.06409846,546.2111444254715,548.1516186359768,1 46060U 20055AK  26001.44300058  .00011700  00000+0  80281-3 0  9991,2 46060  53.0562  58.5015 0001401  90.9716 269.1433 15.06409846298865
STARLINK-1573,46061,53.0567,0.0001278,15.0641393,546.2838107340331,548.0539189130823,1 46061U 20055AL  26001.37297546  .00008757  00000+0  60581-3 0  9990,2 46061  53.0567  58.8514 0001278  98.7029 261.4105 15.06413930298885
STARLINK-1577,46063,53.0551,0.0001631,15.06426154,546.001889578698,548.2609121310561,1 46063U 20055AN  26001.53147250  .00021514  00000+0  14578-2 0  9996,2 46063  53.0551  58.1034 0001631  93.4029 266.7146 15.06426154298903
